BSAT-4B                 
1 46112U 20056A   20252.48539924 -.00000343  00000-0  00000-0 0  9993
2 46112   0.0440 306.1230 0004303   9.7562 312.2846  1.00338020   269
MEV-2                   
1 46113U 20056B   20250.04413223 -.00000085  00000-0  00000+0 0  9999
2 46113   3.6163 121.2949 5679467 184.8189 113.1302  1.89665302   424
GALAXY 30               
1 46114U 20056C   20252.91207005 -.00000182  00000-0  00000-0 0  9996
2 46114   0.0164 355.8060 0000519 224.9778 180.5231  1.00273007   291
ARIANE 5 DEB [SYLDA]    
1 46115U 20056D   20252.29396528  .00003983  00000-0  20023-2 0  9997
2 46115   6.0448 115.1203 7268183 197.0593 111.6007  2.28324408   530
ARIANE 5 R/B            
1 46116U 20056E   20252.69408877  .00000162  00000-0  18735-3 0  9997
2 46116   5.8145 117.4740 7268417 194.8132 119.6073  2.28681443   555
STARLINK-1585           
1 46117U 20057A   20252.91667824 -.00024481  00000-0 -22764-3 0  9992
2 46117  52.9979 335.2730 0008248 284.7461 296.1921 15.66240683  1775
STARLINK-1588           
1 46118U 20057B   20252.91667824 -.00011627  00000-0 -12120-3 0  9996
2 46118  52.9999 335.6233 0001112  46.8343   9.5493 15.62778613  4036
STARLINK-1605           
1 46123U 20057G   20253.16667824 -.00068053  00000-0 -74089-3 0  9997
2 46123  53.0003 334.3599 0007680 273.4253 128.7984 15.62801058  4078
